{
  "type": "FeatureCollection",
  "features": [
    {
      "type": "Feature",
      "properties": {
        "norad_id": 66940,
        "name": "STARLINK-36121",
        "group": "last-30-days",
        "lat": -23.92933360115691,
        "lon": -177.33494502497845,
        "alt_km": 401.4096093840599,
        "timestamp": "2025-12-26T05:31:11.218914+00:00",
        "meta_object_name": "STARLINK-36121",
        "meta_object_id": "2025-286R",
        "meta_epoch": "2025-12-25T22:00:01.999584",
        "meta_mean_motion": 15.57981857,
        "meta_eccentricity": 0.00015274,
        "meta_inclination": 53.1595,
        "meta_ra_of_asc_node": 344.749,
        "meta_arg_of_pericenter": 96.4648,
        "meta_mean_anomaly": 156.4372,
        "meta_ephemeris_type": 0,
        "meta_classification_type": "U",
        "meta_norad_cat_id": 66940,
        "meta_element_set_no": 999,
        "meta_rev_at_epoch": 410,
        "meta_bstar": -0.029380615,
        "meta_mean_motion_dot": -0.01969939,
        "meta_mean_motion_ddot": 0,
        "tle_line1": "1 66940U 25286R   25359.91668981 -.01969939  00000+0 -29381-1 0  9991",
        "tle_line2": "2 66940  53.1595 344.7490 0001527  96.4648 156.4372 15.57981857  4107"
      },
      "geometry": {
        "type": "Point",
        "coordinates": [
          -177.33494502497845,
          -23.92933360115691
        ]
      }
    },
    {
      "type": "Feature",
      "properties": {
        "norad_id": 66941,
        "name": "STARLINK-36088",
        "group": "last-30-days",
        "lat": -38.55469341069391,
        "lon": -160.1160868670135,
        "alt_km": 397.0702378993583,
        "timestamp": "2025-12-26T05:31:11.218926+00:00",
        "meta_object_name": "STARLINK-36088",
        "meta_object_id": "2025-286S",
        "meta_epoch": "2025-12-25T22:00:01.999584",
        "meta_mean_motion": 15.59849262,
        "meta_eccentricity": 0.00014531,
        "meta_inclination": 53.1593,
        "meta_ra_of_asc_node": 344.7106,
        "meta_arg_of_pericenter": 100.7253,
        "meta_mean_anomaly": 170.7898,
        "meta_ephemeris_type": 0,
        "meta_classification_type": "U",
        "meta_norad_cat_id": 66941,
        "meta_element_set_no": 999,
        "meta_rev_at_epoch": 410,
        "meta_bstar": -0.026975097,
        "meta_mean_motion_dot": -0.01945978,
        "meta_mean_motion_ddot": 0,
        "tle_line1": "1 66941U 25286S   25359.91668981 -.01945978  00000+0 -26975-1 0  9995",
        "tle_line2": "2 66941  53.1593 344.7106 0001453 100.7253 170.7898 15.59849262  4106"
      },
      "geometry": {
        "type": "Point",
        "coordinates": [
          -160.1160868670135,
          -38.55469341069391
        ]
      }
    },
    {
      "type": "Feature",
      "properties": {
        "norad_id": 66942,
        "name": "STARLINK-36100",
        "group": "last-30-days",
        "lat": -25.36831054745943,
        "lon": -175.94806914933162,
        "alt_km": 401.53396380586946,
        "timestamp": "2025-12-26T05:31:11.218936+00:00",
        "meta_object_name": "STARLINK-36100",
        "meta_object_id": "2025-286T",
        "meta_epoch": "2025-12-25T22:00:01.999584",
        "meta_mean_motion": 15.57981407,
        "meta_eccentricity": 0.00015168,
        "meta_inclination": 53.1593,
        "meta_ra_of_asc_node": 344.7446,
        "meta_arg_of_pericenter": 97.3912,
        "meta_mean_anomaly": 157.4284,
        "meta_ephemeris_type": 0,
        "meta_classification_type": "U",
        "meta_norad_cat_id": 66942,
        "meta_element_set_no": 999,
        "meta_rev_at_epoch": 404,
        "meta_bstar": -0.02936739,
        "meta_mean_motion_dot": -0.01969124,
        "meta_mean_motion_ddot": 0,
        "tle_line1": "1 66942U 25286T   25359.91668981 -.01969124  00000+0 -29367-1 0  9993",
        "tle_line2": "2 66942  53.1593 344.7446 0001516  97.3912 157.4284 15.57981407  4047"
      },
      "geometry": {
        "type": "Point",
        "coordinates": [
          -175.94806914933162,
          -25.36831054745943
        ]
      }
    },
    {
      "type": "Feature",
      "properties": {
        "norad_id": 66943,
        "name": "STARLINK-36109",
        "group": "last-30-days",
        "lat": -26.793727025300477,
        "lon": -174.5278831827229,
        "alt_km": 401.6350475122508,
        "timestamp": "2025-12-26T05:31:11.218946+00:00",
        "meta_object_name": "STARLINK-36109",
        "meta_object_id": "2025-286U",
        "meta_epoch": "2025-12-25T22:00:01.999584",
        "meta_mean_motion": 15.57979593,
        "meta_eccentricity": 0.00015192,
        "meta_inclination": 53.159,
        "meta_ra_of_asc_node": 344.7402,
        "meta_arg_of_pericenter": 99.7478,
        "meta_mean_anomaly": 156.9897,
        "meta_ephemeris_type": 0,
        "meta_classification_type": "U",
        "meta_norad_cat_id": 66943,
        "meta_element_set_no": 999,
        "meta_rev_at_epoch": 404,
        "meta_bstar": -0.029320791,
        "meta_mean_motion_dot": -0.01966265,
        "meta_mean_motion_ddot": 0,
        "tle_line1": "1 66943U 25286U   25359.91668981 -.01966265  00000+0 -29321-1 0  9997",
        "tle_line2": "2 66943  53.1590 344.7402 0001519  99.7478 156.9897 15.57979593  4040"
      },
      "geometry": {
        "type": "Point",
        "coordinates": [
          -174.5278831827229,
          -26.793727025300477
        ]
      }
    },
    {
      "type": "Feature",
      "properties": {
        "norad_id": 66944,
        "name": "STARLINK-36112",
        "group": "last-30-days",
        "lat": -28.203600169586128,
        "lon": -173.0725535068956,
        "alt_km": 401.7269860275792,
        "timestamp": "2025-12-26T05:31:11.218957+00:00",
        "meta_object_name": "STARLINK-36112",
        "meta_object_id": "2025-286V",
        "meta_epoch": "2025-12-25T22:00:01.999584",
        "meta_mean_motion": 15.57981464,
        "meta_eccentricity": 0.00015062,
        "meta_inclination": 53.159,
        "meta_ra_of_asc_node": 344.7361,
        "meta_arg_of_pericenter": 101.982,
        "meta_mean_anomaly": 156.67,
        "meta_ephemeris_type": 0,
        "meta_classification_type": "U",
        "meta_norad_cat_id": 66944,
        "meta_element_set_no": 999,
        "meta_rev_at_epoch": 410,
        "meta_bstar": -0.029342125,
        "meta_mean_motion_dot": -0.01967634,
        "meta_mean_motion_ddot": 0,
        "tle_line1": "1 66944U 25286V   25359.91668981 -.01967634  00000+0 -29342-1 0  9992",
        "tle_line2": "2 66944  53.1590 344.7361 0001506 101.9820 156.6700 15.57981464  4105"
      },
      "geometry": {
        "type": "Point",
        "coordinates": [
          -173.0725535068956,
          -28.203600169586128
        ]
      }
    },
    {
      "type": "Feature",
      "properties": {
        "norad_id": 66945,
        "name": "STARLINK-36110",
        "group": "last-30-days",
        "lat": -29.597701820522783,
        "lon": -171.57914303880526,
        "alt_km": 401.8465592604698,
        "timestamp": "2025-12-26T05:31:11.218967+00:00",
        "meta_object_name": "STARLINK-36110",
        "meta_object_id": "2025-286W",
        "meta_epoch": "2025-12-25T22:00:01.999584",
        "meta_mean_motion": 15.57978964,
        "meta_eccentricity": 0.00014987,
        "meta_inclination": 53.1595,
        "meta_ra_of_asc_node": 344.7316,
        "meta_arg_of_pericenter": 101.9814,
        "meta_mean_anomaly": 158.5878,
        "meta_ephemeris_type": 0,
        "meta_classification_type": "U",
        "meta_norad_cat_id": 66945,
        "meta_element_set_no": 999,
        "meta_rev_at_epoch": 410,
        "meta_bstar": -0.029273462,
        "meta_mean_motion_dot": -0.01963422,
        "meta_mean_motion_ddot": 0,
        "tle_line1": "1 66945U 25286W   25359.91668981 -.01963422  00000+0 -29273-1 0  9997",
        "tle_line2": "2 66945  53.1595 344.7316 0001498 101.9814 158.5878 15.57978964  4102"
      },
      "geometry": {
        "type": "Point",
        "coordinates": [
          -171.57914303880526,
          -29.597701820522783
        ]
      }
    },
    {
      "type": "Feature",
      "properties": {
        "norad_id": 66946,
        "name": "STARLINK-36115",
        "group": "last-30-days",
        "lat": -30.974620941904334,
        "lon": -170.04221796689382,
        "alt_km": 401.9954405253511,
        "timestamp": "2025-12-26T05:31:11.218978+00:00",
        "meta_object_name": "STARLINK-36115",
        "meta_object_id": "2025-286X",
        "meta_epoch": "2025-12-25T22:00:01.999584",
        "meta_mean_motion": 15.57980052,
        "meta_eccentricity": 0.00014716,
        "meta_inclination": 53.1589,
        "meta_ra_of_asc_node": 344.7277,
        "meta_arg_of_pericenter": 99.3274,
        "meta_mean_anomaly": 163.1594,
        "meta_ephemeris_type": 0,
        "meta_classification_type": "U",
        "meta_norad_cat_id": 66946,
        "meta_element_set_no": 999,
        "meta_rev_at_epoch": 410,
        "meta_bstar": -0.029318827,
        "meta_mean_motion_dot": -0.01966146,
        "meta_mean_motion_ddot": 0,
        "tle_line1": "1 66946U 25286X   25359.91668981 -.01966146  00000+0 -29319-1 0  9995",
        "tle_line2": "2 66946  53.1589 344.7277 0001471  99.3274 163.1594 15.57980052  4101"
      },
      "geometry": {
        "type": "Point",
        "coordinates": [
          -170.04221796689382,
          -30.974620941904334
        ]
      }
    }
  ]
}